{"fetched_at":"2026-03-29T16:36:15Z","count":15609,"tles":[{"name":"STARLINK-35372","line1":"1 66476U 25262W   26087.63859740  .00039522  00000+0  14365-2 0  9992","line2":"2 66476  42.9990 189.2136 0001757 273.9813  86.0837 15.27615307 21694","category":"Starlink"}]}