{
  "norad_id": 66476,
  "name": "STARLINK-35372",
  "history": [
    {
      "epoch": "2026-03-28T15:19:34.815360",
      "apogee_km": 484.1488680383791,
      "perigee_km": 481.73788439417694,
      "latitude_deg": 29.557319849104616,
      "longitude_deg": 168.90535040013492,
      "semi_major_axis_km": 6861.080376216278,
      "eccentricity": 0.0001757,
      "inclination_deg": 42.999,
      "raan_deg": 189.2136,
      "arg_perigee_deg": 273.9813,
      "mean_anomaly_deg": 86.0837,
      "mean_motion_rev_day": 15.27615307
    }
  ]
}